NORAD_CAT_ID,OBJECT_NAME,OBJECT_TYPE,EPOCH,MEAN_MOTION,ECCENTRICITY,INCLINATION,RA_OF_ASC_NODE,ARG_OF_PERICENTER,MEAN_ANOMALY,BSTAR,MEAN_MOTION_DOT,MEAN_MOTION_DDOT,TLE_LINE0,TLE_LINE1,TLE_LINE2,SEMIMAJOR_AXIS,PERIOD,APOGEE,PERIGEE,DECAYED
52580.0,STARLINK-3919,PAYLOAD,2022-06-09 06:00:00,15.47703966,0.0001964,53.2173,164.5672,31.6117,88.1722,-0.017321,-0.00832763,0.0,0 STARLINK-3919,1 52580U 22051AW  22160.25001157 -.00832763  00000-0 -17321-1 0  9998,2 52580  53.2173 164.5672 0001964  31.6117  88.1722 15.47703966  4665,6801.581999999999,93.041,424.782,422.111,0.0
52580.0,STARLINK-3919,PAYLOAD,2022-06-09 14:00:01,15.47109525,0.0001614,53.2172,162.9827,43.6737,134.0377,-0.017726,-0.00834463,0.0,0 STARLINK-3919,1 52580U 22051AW  22160.58334491 -.00834463  00000-0 -17726-1 0  9992,2 52580  53.2172 162.9827 0001614  43.6737 134.0377 15.47109525  1307,6803.324000000001,93.077,426.287,424.091,0.0
52580.0,STARLINK-3919,PAYLOAD,2022-06-09 22:00:00,15.46512783,0.0001499,53.2173,161.3977,53.1306,181.7943,-0.01806,-0.00832827,0.0,0 STARLINK-3919,1 52580U 22051AW  22160.91667824 -.00832827  00000-0 -18060-1 0  9992,2 52580  53.2173 161.3977 0001499  53.1306 181.7943 15.46512783  1307,6805.074000000001,93.113,427.959,425.919,0.0
52580.0,STARLINK-3919,PAYLOAD,2022-06-10 08:00:01,15.457703099999998,0.0001561999999999,53.2176,159.4229,39.3286,356.1026,-0.018606,-0.00835932,0.0,0 STARLINK-3919,1 52580U 22051AW  22161.33334491 -.00835932  00000-0 -18606-1 0  9996,2 52580  53.2176 159.4229 0001562  39.3286 356.1026 15.45770310  4834,6807.253000000002,93.157,430.181,428.054,0.0
52580.0,STARLINK-3919,PAYLOAD,2022-06-10 14:00:01,15.45323387,0.0001283,53.2174,158.2371,52.7479,294.4521,-0.01888,-0.00835262,0.0,0 STARLINK-3919,1 52580U 22051AW  22161.58334491 -.00835262  00000-0 -18880-1 0  9993,2 52580  53.2174 158.2371 0001283  52.7479 294.4521 15.45323387  1301,6808.565,93.184,431.304,429.556,0.0
52580.0,STARLINK-3919,PAYLOAD,2022-06-10 22:00:00,15.44724453,0.0001408,53.2175,156.6567,45.0278,357.2393,-0.019161,-0.00830849,0.0,0 STARLINK-3919,1 52580U 22051AW  22161.91667824 -.00830849  00000-0 -19161-1 0  9998,2 52580  53.2175 156.6567 0001408  45.0278 357.2393 15.44724453  1305,6810.325,93.221,433.149,431.231,0.0
52580.0,STARLINK-3919,PAYLOAD,2022-06-11 14:00:01,15.4353473,0.0001488,53.2173,153.5046,51.5555,98.6922,-0.019997,-0.00843213,0.0,0 STARLINK-3919,1 52580U 22051AW  22162.58334491 -.00843213  00000-0 -19997-1 0  9999,2 52580  53.2173 153.5046 0001488  51.5555  98.6922 15.43534730  5022,6813.824000000001,93.292,436.703,434.675,0.0
52580.0,STARLINK-3919,PAYLOAD,2022-06-11 22:00:00,15.42938985,0.0001569,53.2174,151.9287,51.9309,151.235,-0.020413,-0.00843523,0.0,0 STARLINK-3919,1 52580U 22051AW  22162.91667824 -.00843523  00000-0 -20413-1 0  9994,2 52580  53.2174 151.9287 0001569  51.9309 151.2350 15.42938985  1300,6815.578,93.328,438.512,436.37300000000016,0.0
52580.0,STARLINK-3919,PAYLOAD,2022-06-12 14:00:01,15.41748956,0.0001333,53.2173,148.7851,55.6705,251.1818,-0.021307,-0.00845625,0.0,0 STARLINK-3919,1 52580U 22051AW  22163.58334491 -.00845625  00000-0 -21307-1 0  9997,2 52580  53.2173 148.7851 0001333  55.6705 251.1818 15.41748956  5185,6819.084,93.4,441.858,440.04,0.0
52580.0,STARLINK-3919,PAYLOAD,2022-06-12 22:00:00,15.41149656,0.0001322,53.2175,147.2136,53.2164,304.4077,-0.021566,-0.00839381,0.0,0 STARLINK-3919,1 52580U 22051AW  22163.91667824 -.00839381  00000-0 -21566-1 0  9992,2 52580  53.2175 147.2136 0001322  53.2164 304.4077 15.41149656  1309,6820.852,93.437,443.619,441.815,0.0
52580.0,STARLINK-3919,PAYLOAD,2022-06-13 14:00:01,15.39960093,0.0001395999999999,53.2172,144.0785,50.9677,46.0478,-0.022511,-0.00841935,0.0,0 STARLINK-3919,1 52580U 22051AW  22164.58334491 -.00841935  00000-0 -22511-1 0  9996,2 52580  53.2172 144.0785 0001396  50.9677  46.0478 15.39960093  5339,6824.364000000001,93.509,447.182,445.277,0.0
52580.0,STARLINK-3919,PAYLOAD,2022-06-13 22:00:00,15.39364325,0.0001605,53.2174,142.5112,48.1576,97.4809,-0.022943,-0.00841412,0.0,0 STARLINK-3919,1 52580U 22051AW  22164.91667824 -.00841412  00000-0 -22943-1 0  9991,2 52580  53.2174 142.5112 0001605  48.1576  97.4809 15.39364325  1305,6826.125,93.545,449.085,446.894,0.0
52580.0,STARLINK-3919,PAYLOAD,2022-06-14 14:00:01,15.38174491,0.0001526,53.2173,139.3844,53.2975,187.4382,-0.023953,-0.00844459,0.0,0 STARLINK-3919,1 52580U 22051AW  22165.58334491 -.00844459  00000-0 -23953-1 0  9992,2 52580  53.2173 139.3844 0001526  53.2975 187.4382 15.38174491  5483,6829.645,93.617,452.552,450.467,0.0
52580.0,STARLINK-3919,PAYLOAD,2022-06-14 22:00:00,15.37576066,0.0001419999999999,53.2174,137.8213,57.4962,229.716,-0.024252,-0.00838854,0.0,0 STARLINK-3919,1 52580U 22051AW  22165.91667824 -.00838854  00000-0 -24252-1 0  9993,2 52580  53.2174 137.8213 0001420  57.4962 229.7160 15.37576066  1306,6831.417,93.654,454.252,452.311,0.0
52580.0,STARLINK-3919,PAYLOAD,2022-06-15 14:00:01,15.36386811,0.0001324,53.2174,134.7031,51.2873,326.7271,-0.025349,-0.00843168,0.0,0 STARLINK-3919,1 52580U 22051AW  22166.58334491 -.00843168  00000-0 -25349-1 0  9990,2 52580  53.2174 134.7031 0001324  51.2873 326.7271 15.36386811  5644,6834.941,93.726,457.711,455.901,0.0
52580.0,STARLINK-3919,PAYLOAD,2022-06-15 22:00:00,15.35788674,0.0001485,53.2174,133.1446,45.5226,16.8209,-0.025687,-0.00838452,0.0,0 STARLINK-3919,1 52580U 22051AW  22166.91667824 -.00838452  00000-0 -25687-1 0  9991,2 52580  53.2174 133.1446 0001485  45.5226  16.8209 15.35788674  1302,6836.715999999999,93.763,459.596,457.566,0.0
52580.0,STARLINK-3919,PAYLOAD,2022-06-16 02:00:01,15.35484817,0.000154,53.2178,132.3664,46.2924,217.9491,-0.025634,-0.00829304,0.0,0 STARLINK-3919,1 52580U 22051AW  22167.08334491 -.00829304  00000-0 -25634-1 0  9999,2 52580  53.2178 132.3664 0001540  46.2924 217.9491 15.35484817  1303,6837.618,93.781,460.536,458.43,0.0
52580.0,STARLINK-3919,PAYLOAD,2022-06-19 14:00:01,15.29236724,0.0001641999999999,53.2175,116.1048,45.7026,97.0055,-0.031618,-0.00839002,0.0,0 STARLINK-3919,1 52580U 22051AW  22170.58334491 -.00839002  00000-0 -31618-1 0  9993,2 52580  53.2175 116.1048 0001642  45.7026  97.0055 15.29236724  1304,6856.23,94.165,479.221,476.969,0.0
52580.0,STARLINK-3919,PAYLOAD,2022-06-19 20:00:01,15.28788811,0.0001629999999999,53.2176,114.9486,40.7312,38.8483,-0.03197,-0.0083685,0.0,0 STARLINK-3919,1 52580U 22051AW  22170.83334491 -.00836850  00000-0 -31970-1 0  9990,2 52580  53.2176 114.9486 0001630  40.7312  38.8483 15.28788811  6296,6857.569,94.192,480.552,478.316,0.0
52580.0,STARLINK-3919,PAYLOAD,2022-06-19 22:00:00,15.28640265,0.000174,53.2179,114.5641,44.3489,134.0978,-0.032146,-0.00837569,0.0,0 STARLINK-3919,1 52580U 22051AW  22170.91667824 -.00837569  00000-0 -32146-1 0  9992,2 52580  53.2179 114.5641 0001740  44.3489 134.0978 15.28640265  1300,6858.013000000001,94.201,481.071,478.685,0.0
52580.0,STARLINK-3919,PAYLOAD,2022-06-20 14:00:01,15.27450483,0.000153,53.2176,111.4868,55.1697,192.6061,-0.033451,-0.0084003999999999,0.0,0 STARLINK-3919,1 52580U 22051AW  22171.58334491 -.00840040  00000-0 -33451-1 0  9995,2 52580  53.2176 111.4868 0001530  55.1697 192.6061 15.27450483  1305,6861.574000000001,94.275,484.489,482.389,0.0
52580.0,STARLINK-3919,PAYLOAD,2022-06-20 22:00:00,15.26853706,0.000158,53.2177,109.9505,50.6415,230.7255,-0.033972,-0.00837888,0.0,0 STARLINK-3919,1 52580U 22051AW  22171.91667824 -.00837888  00000-0 -33972-1 0  9995,2 52580  53.2177 109.9505 0001580  50.6415 230.7255 15.26853706  6464,6863.361999999999,94.312,486.311,484.142,0.0
52580.0,STARLINK-3919,PAYLOAD,2022-06-21 14:00:01,15.25662853,0.0001355,53.2176,106.8815,53.7175,292.6846,-0.035297,-0.0083945,0.0,0 STARLINK-3919,1 52580U 22051AW  22172.58334491 -.00839450  00000-0 -35297-1 0  9999,2 52580  53.2176 106.8815 0001355  53.7175 292.6846 15.25662853  1301,6866.933000000001,94.385,489.728,487.867,0.0
52580.0,STARLINK-3919,PAYLOAD,2022-06-21 22:00:00,15.25067714,0.0001551,53.2178,105.3497,42.2519,335.5931,-0.035953,-0.00839803,0.0,0 STARLINK-3919,1 52580U 22051AW  22172.91667824 -.00839803  00000-0 -35953-1 0  9996,2 52580  53.2178 105.3497 0001551  42.2519 335.5931 15.25067714  1303,6868.719,94.422,491.649,489.519,0.0
52580.0,STARLINK-3919,PAYLOAD,2022-06-22 00:00:02,15.24917123,0.0001756,53.2175,104.9673,40.656,75.0021,-0.036011,-0.00837564,0.0,0 STARLINK-3919,1 52580U 22051AW  22173.00002315 -.00837564  00000-0 -36011-1 0  9993,2 52580  53.2175 104.9673 0001756  40.6560  75.0021 15.24917123  6629,6869.170999999999,94.431,492.24300000000005,489.83,0.0
52580.0,STARLINK-3919,PAYLOAD,2022-06-22 14:00:01,15.238743,0.0001396999999999,53.2176,102.2889,51.8318,26.7545,-0.037129,-0.0083691,0.0,0 STARLINK-3919,1 52580U 22051AW  22173.58334491 -.00836910  00000-0 -37129-1 0  9994,2 52580  53.2176 102.2889 0001397  51.8318  26.7545 15.23874300  1308,6872.305,94.496,495.13,493.21,0.0
52580.0,STARLINK-3919,PAYLOAD,2022-06-22 22:00:00,15.232799900000002,0.0001608,53.2176,100.7613,46.4141,61.4677,-0.037897,-0.00839025,0.0,0 STARLINK-3919,1 52580U 22051AW  22173.91667824 -.00839025  00000-0 -37897-1 0  9992,2 52580  53.2176 100.7613 0001608  46.4141  61.4677 15.23279990  6766,6874.092,94.533,497.06300000000016,494.852,0.0
52580.0,STARLINK-3919,PAYLOAD,2022-06-23 14:00:01,15.22086616,0.0001520999999999,53.2174,97.7087,55.5068,108.8213,-0.039079,-0.008353,0.0,0 STARLINK-3919,1 52580U 22051AW  22174.58334491 -.00835300  00000-0 -39079-1 0  9993,2 52580  53.2174  97.7087 0001521  55.5068 108.8213 15.22086616  1304,6877.685,94.607,500.596,498.504,0.0
52580.0,STARLINK-3919,PAYLOAD,2022-06-23 22:00:00,15.21491521,0.0001683,53.2177,96.1854,51.332,140.1445,-0.039828,-0.00836378,0.0,0 STARLINK-3919,1 52580U 22051AW  22174.91667824 -.00836378  00000-0 -39828-1 0  9997,2 52580  53.2177  96.1854 0001683  51.3320 140.1445 15.21491521  6929,6879.478,94.644,502.501,500.185,0.0
